{
  "type": "FeatureCollection",
  "features": [
    {
      "type": "Feature",
      "properties": {
        "norad_id": 43207,
        "name": "BEIDOU-3 M4 (C22)",
        "group": "beidou",
        "lat": -22.13821320035688,
        "lon": 53.52400159083656,
        "alt_km": 21521.523262398616,
        "timestamp": "2025-12-18T04:58:34.841533+00:00",
        "meta_object_name": "BEIDOU-3 M4 (C22)",
        "meta_object_id": "2018-018A",
        "meta_epoch": "2025-12-17T17:03:00.962784",
        "meta_mean_motion": 1.86231343,
        "meta_eccentricity": 0.00041109,
        "meta_inclination": 56.4905,
        "meta_ra_of_asc_node": 69.1395,
        "meta_arg_of_pericenter": 7.1721,
        "meta_mean_anomaly": 352.8599,
        "meta_ephemeris_type": 0,
        "meta_classification_type": "U",
        "meta_norad_cat_id": 43207,
        "meta_element_set_no": 999,
        "meta_rev_at_epoch": 5336,
        "meta_bstar": 0,
        "meta_mean_motion_dot": -7e-07,
        "meta_mean_motion_ddot": 0,
        "tle_line1": "1 43207U 18018A   25351.71042781 -.00000070  00000+0  00000+0 0  9996",
        "tle_line2": "2 43207  56.4905  69.1395 0004110   7.1721 352.8599  1.86231343 53363"
      },
      "geometry": {
        "type": "Point",
        "coordinates": [
          53.52400159083656,
          -22.13821320035688
        ]
      }
    },
    {
      "type": "Feature",
      "properties": {
        "norad_id": 43208,
        "name": "BEIDOU-3 M3 (C21)",
        "group": "beidou",
        "lat": -52.27478021756179,
        "lon": 10.365105223596716,
        "alt_km": 21517.049253728383,
        "timestamp": "2025-12-18T04:58:34.841544+00:00",
        "meta_object_name": "BEIDOU-3 M3 (C21)",
        "meta_object_id": "2018-018B",
        "meta_epoch": "2025-12-17T18:38:47.514912",
        "meta_mean_motion": 1.8623152,
        "meta_eccentricity": 0.00067422,
        "meta_inclination": 56.4896,
        "meta_ra_of_asc_node": 69.1416,
        "meta_arg_of_pericenter": 315.779,
        "meta_mean_anomaly": 44.1937,
        "meta_ephemeris_type": 0,
        "meta_classification_type": "U",
        "meta_norad_cat_id": 43208,
        "meta_element_set_no": 999,
        "meta_rev_at_epoch": 5336,
        "meta_bstar": 0,
        "meta_mean_motion_dot": -6.9e-07,
        "meta_mean_motion_ddot": 0,
        "tle_line1": "1 43208U 18018B   25351.77693883 -.00000069  00000+0  00000+0 0  9996",
        "tle_line2": "2 43208  56.4896  69.1416 0006742 315.7790  44.1937  1.86231520 53368"
      },
      "geometry": {
        "type": "Point",
        "coordinates": [
          10.365105223596716,
          -52.27478021756179
        ]
      }
    },
    {
      "type": "Feature",
      "properties": {
        "norad_id": 43245,
        "name": "BEIDOU-3 M9 (C29)",
        "group": "beidou",
        "lat": 28.826538034982125,
        "lon": 103.01765487092396,
        "alt_km": 21528.21953859396,
        "timestamp": "2025-12-18T04:58:34.841555+00:00",
        "meta_object_name": "BEIDOU-3 M9 (C29)",
        "meta_object_id": "2018-029A",
        "meta_epoch": "2025-12-17T10:56:56.120640",
        "meta_mean_motion": 1.86228468,
        "meta_eccentricity": 0.00015623,
        "meta_inclination": 54.3612,
        "meta_ra_of_asc_node": 306.303,
        "meta_arg_of_pericenter": 285.5475,
        "meta_mean_anomaly": 74.4222,
        "meta_ephemeris_type": 0,
        "meta_classification_type": "U",
        "meta_norad_cat_id": 43245,
        "meta_element_set_no": 999,
        "meta_rev_at_epoch": 5251,
        "meta_bstar": 0,
        "meta_mean_motion_dot": -9e-07,
        "meta_mean_motion_ddot": 0,
        "tle_line1": "1 43245U 18029A   25351.45620510 -.00000090  00000+0  00000+0 0  9995",
        "tle_line2": "2 43245  54.3612 306.3030 0001562 285.5475  74.4222  1.86228468 52515"
      },
      "geometry": {
        "type": "Point",
        "coordinates": [
          103.01765487092396,
          28.826538034982125
        ]
      }
    },
    {
      "type": "Feature",
      "properties": {
        "norad_id": 43246,
        "name": "BEIDOU-3 M10 (C30)",
        "group": "beidou",
        "lat": -5.738833168745414,
        "lon": 130.4110086922256,
        "alt_km": 21540.923806491843,
        "timestamp": "2025-12-18T04:58:34.841567+00:00",
        "meta_object_name": "BEIDOU-3 M10 (C30)",
        "meta_object_id": "2018-029B",
        "meta_epoch": "2025-12-17T09:23:40.675200",
        "meta_mean_motion": 1.8622912,
        "meta_eccentricity": 0.00041993,
        "meta_inclination": 54.3586,
        "meta_ra_of_asc_node": 306.3321,
        "meta_arg_of_pericenter": 3.5987,
        "meta_mean_anomaly": 356.3911,
        "meta_ephemeris_type": 0,
        "meta_classification_type": "U",
        "meta_norad_cat_id": 43246,
        "meta_element_set_no": 999,
        "meta_rev_at_epoch": 5249,
        "meta_bstar": 0,
        "meta_mean_motion_dot": -9e-07,
        "meta_mean_motion_ddot": 0,
        "tle_line1": "1 43246U 18029B   25351.39144300 -.00000090  00000+0  00000+0 0  9997",
        "tle_line2": "2 43246  54.3586 306.3321 0004199   3.5987 356.3911  1.86229120 52494"
      },
      "geometry": {
        "type": "Point",
        "coordinates": [
          130.4110086922256,
          -5.738833168745414
        ]
      }
    },
    {
      "type": "Feature",
      "properties": {
        "norad_id": 43539,
        "name": "BEIDOU-2 IGSO-7 (C16)",
        "group": "beidou",
        "lat": 51.7262423920458,
        "lon": -77.48456476028986,
        "alt_km": 36026.012319092035,
        "timestamp": "2025-12-18T04:58:34.841579+00:00",
        "meta_object_name": "BEIDOU-2 IGSO-7 (C16)",
        "meta_object_id": "2018-057A",
        "meta_epoch": "2025-12-15T07:47:07.120608",
        "meta_mean_motion": 1.00256546,
        "meta_eccentricity": 0.00926218,
        "meta_inclination": 55.1766,
        "meta_ra_of_asc_node": 164.6485,
        "meta_arg_of_pericenter": 235.2644,
        "meta_mean_anomaly": 271.8458,
        "meta_ephemeris_type": 0,
        "meta_classification_type": "U",
        "meta_norad_cat_id": 43539,
        "meta_element_set_no": 999,
        "meta_rev_at_epoch": 2728,
        "meta_bstar": 0,
        "meta_mean_motion_dot": -2.3e-07,
        "meta_mean_motion_ddot": 0,
        "tle_line1": "1 43539U 18057A   25349.32438797 -.00000023  00000+0  00000+0 0  9995",
        "tle_line2": "2 43539  55.1766 164.6485 0092621 235.2644 271.8458  1.00256546 27289"
      },
      "geometry": {
        "type": "Point",
        "coordinates": [
          -77.48456476028986,
          51.7262423920458
        ]
      }
    },
    {
      "type": "Feature",
      "properties": {
        "norad_id": 43581,
        "name": "BEIDOU-3 M5 (C23)",
        "group": "beidou",
        "lat": 28.72310061770903,
        "lon": -148.12683667009637,
        "alt_km": 21520.281635805062,
        "timestamp": "2025-12-18T04:58:34.841591+00:00",
        "meta_object_name": "BEIDOU-3 M5 (C23)",
        "meta_object_id": "2018-062A",
        "meta_epoch": "2025-12-17T01:53:59.361792",
        "meta_mean_motion": 1.86228923,
        "meta_eccentricity": 0.00020674,
        "meta_inclination": 54.0895,
        "meta_ra_of_asc_node": 188.4955,
        "meta_arg_of_pericenter": 356.8892,
        "meta_mean_anomaly": 3.1782,
        "meta_ephemeris_type": 0,
        "meta_classification_type": "U",
        "meta_norad_cat_id": 43581,
        "meta_element_set_no": 999,
        "meta_rev_at_epoch": 5024,
        "meta_bstar": 0,
        "meta_mean_motion_dot": 1.14e-06,
        "meta_mean_motion_ddot": 0,
        "tle_line1": "1 43581U 18062A   25351.07915928  .00000114  00000+0  00000+0 0  9999",
        "tle_line2": "2 43581  54.0895 188.4955 0002067 356.8892   3.1782  1.86228923 50243"
      },
      "geometry": {
        "type": "Point",
        "coordinates": [
          -148.12683667009637,
          28.72310061770903
        ]
      }
    },
    {
      "type": "Feature",
      "properties": {
        "norad_id": 43582,
        "name": "BEIDOU-3 M6 (C24)",
        "group": "beidou",
        "lat": 39.37721494828764,
        "lon": -28.06241068372478,
        "alt_km": 21519.57392222007,
        "timestamp": "2025-12-18T04:58:34.841602+00:00",
        "meta_object_name": "BEIDOU-3 M6 (C24)",
        "meta_object_id": "2018-062B",
        "meta_epoch": "2025-12-16T22:36:47.503008",
        "meta_mean_motion": 1.86229876,
        "meta_eccentricity": 0.00079021,
        "meta_inclination": 54.0891,
        "meta_ra_of_asc_node": 188.4892,
        "meta_arg_of_pericenter": 48.1398,
        "meta_mean_anomaly": 311.9965,
        "meta_ephemeris_type": 0,
        "meta_classification_type": "U",
        "meta_norad_cat_id": 43582,
        "meta_element_set_no": 999,
        "meta_rev_at_epoch": 5024,
        "meta_bstar": 0,
        "meta_mean_motion_dot": 1.14e-06,
        "meta_mean_motion_ddot": 0,
        "tle_line1": "1 43582U 18062B   25350.94221647  .00000114  00000+0  00000+0 0  9993",
        "tle_line2": "2 43582  54.0891 188.4892 0007902  48.1398 311.9965  1.86229876 50246"
      },
      "geometry": {
        "type": "Point",
        "coordinates": [
          -28.06241068372478,
          39.37721494828764
        ]
      }
    }
  ]
}